[{"OBJECT_NAME":"BRO-20","OBJECT_ID":"2025-276J","EPOCH":"2026-03-09T17:53:13.761888","MEAN_MOTION":15.17433082,"ECCENTRICITY":0.00061573,"INCLINATION":97.4238,"RA_OF_ASC_NODE":143.811,"ARG_OF_PERICENTER":5.4292,"MEAN_ANOMALY":354.7007,"EPHEMERIS_TYPE":0,"CLASSIFICATION_TYPE":"U","NORAD_CAT_ID":66674,"ELEMENT_SET_NO":999,"REV_AT_EPOCH":1531,"BSTAR":0.00030941634,"MEAN_MOTION_DOT":6.127e-5,"MEAN_MOTION_DDOT":0},{"OBJECT_NAME":"KUIPER-00183","OBJECT_ID":"2025-301F","EPOCH":"2026-03-09T22:00:01.999584","MEAN_MOTION":15.28555387,"ECCENTRICITY":0.00143222,"INCLINATION":51.8667,"RA_OF_ASC_NODE":65.0366,"ARG_OF_PERICENTER":58.1585,"MEAN_ANOMALY":99.3056,"EPHEMERIS_TYPE":0,"CLASSIFICATION_TYPE":"U","NORAD_CAT_ID":67138,"ELEMENT_SET_NO":999,"REV_AT_EPOCH":583,"BSTAR":-0.054814766,"MEAN_MOTION_DOT":-0.01408357,"MEAN_MOTION_DDOT":0}]
